OKEAN-3                 
1 21397U 91039A   25312.81672840  .00006112  00000+0  44217-3 0  9993
2 21397  82.5164  93.8718 0014992  26.1030 334.0949 15.03772050846867
COSMOS 2151             
1 21422U 91042A   25312.79299194  .00003021  00000+0  24359-3 0  9991
2 21422  82.4989 200.2077 0014109 105.0513 255.2273 14.99502684845079
SL-14 R/B               
1 21423U 91042B   25312.47624810  .00000626  00000+0  76498-4 0  9994
2 21423  82.4924 333.8583 0015506 280.5125  79.4342 14.81691342835123
ERS-1                   
1 21574U 91050A   25312.74359264  .00000538  00000+0  18695-3 0  9994
2 21574  98.7925 322.9448 0031650 199.2649 160.7344 14.39324484798335
ARIANE 40 R/B           
1 21610U 91050F   25312.59668668  .00000607  00000+0  19464-3 0  9991
2 21610  98.2215   4.2516 0004318  85.4421 274.7262 14.42768220801530
INTERCOSMOS 25          
1 21819U 91086A   25312.61938819  .00001670  00000+0  32456-3 0  9999
2 21819  82.6087  23.1991 1488553  17.9377 346.8885 12.11578185482024
SL-8 R/B                
1 21876U 92008B   25312.59302453  .00000144  00000+0  13187-3 0  9998
2 21876  82.9289 357.8449 0036048 112.2708  39.8040 13.75948434692768
SL-8 R/B                
1 21938U 92020B   25312.60297935  .00000076  00000+0  63835-4 0  9991
2 21938  82.9305 243.6645 0027638 276.6215 257.3669 13.75520580684481
USA 81                  
1 21949U 92023A   25312.66283916  .00000311  00000+0  10780-3 0  9998
2 21949  85.0114 201.2239 0002693  79.5509 280.5987 14.32307969 77467
COSMOS 2219             
1 22219U 92076A   25312.84052403  .00000256  00000+0  15907-3 0  9996
2 22219  71.0605 270.6920 0017396  17.5398 342.6321 14.14064061701299
SL-16 R/B               
1 22220U 92076B   25312.83941072  .00000171  00000+0  10914-3 0  9995
2 22220  70.9994  82.9382 0015145 278.1178 197.1029 14.16834484704711
COSMOS 2221             
1 22236U 92080A   25312.69798355  .00003775  00000+0  33773-3 0  9996
2 22236  82.5069  34.8979 0013440 235.6183 124.3768 14.95557484762702
