CCSDS_OMM_VERS = 2.0
CREATION_DATE  = 
ORIGINATOR     = 

OBJECT_NAME    = OKEAN-3
OBJECT_ID      = 1991-039A
CENTER_NAME    = EARTH
REF_FRAME      = TEME
TIME_SYSTEM    = UTC
MEAN_ELEMENT_THEORY = SGP/SGP4

EPOCH          = 2025-11-08T19:36:05.333760
MEAN_MOTION    = 15.03772050
ECCENTRICITY   = .0014992
INCLINATION    = 82.5164
RA_OF_ASC_NODE = 93.8718
ARG_OF_PERICENTER = 26.1030
MEAN_ANOMALY   = 334.0949

EPHEMERIS_TYPE = 0
CLASSIFICATION_TYPE = U
NORAD_CAT_ID   = 21397
ELEMENT_SET_NO = 999
REV_AT_EPOCH   = 84686
BSTAR          = .44217E-3
MEAN_MOTION_DOT = .6112E-4
MEAN_MOTION_DDOT = 0

CCSDS_OMM_VERS = 2.0
CREATION_DATE  = 
ORIGINATOR     = 

OBJECT_NAME    = COSMOS 2151
OBJECT_ID      = 1991-042A
CENTER_NAME    = EARTH
REF_FRAME      = TEME
TIME_SYSTEM    = UTC
MEAN_ELEMENT_THEORY = SGP/SGP4

EPOCH          = 2025-11-08T19:01:54.503616
MEAN_MOTION    = 14.99502684
ECCENTRICITY   = .0014109
INCLINATION    = 82.4989
RA_OF_ASC_NODE = 200.2077
ARG_OF_PERICENTER = 105.0513
MEAN_ANOMALY   = 255.2273

EPHEMERIS_TYPE = 0
CLASSIFICATION_TYPE = U
NORAD_CAT_ID   = 21422
ELEMENT_SET_NO = 999
REV_AT_EPOCH   = 84507
BSTAR          = .24359E-3
MEAN_MOTION_DOT = .3021E-4
MEAN_MOTION_DDOT = 0

CCSDS_OMM_VERS = 2.0
CREATION_DATE  = 
ORIGINATOR     = 

OBJECT_NAME    = SL-14 R/B
OBJECT_ID      = 1991-042B
CENTER_NAME    = EARTH
REF_FRAME      = TEME
TIME_SYSTEM    = UTC
MEAN_ELEMENT_THEORY = SGP/SGP4

EPOCH          = 2025-11-08T11:25:47.835840
MEAN_MOTION    = 14.81691342
ECCENTRICITY   = .0015506
INCLINATION    = 82.4924
RA_OF_ASC_NODE = 333.8583
ARG_OF_PERICENTER = 280.5125
MEAN_ANOMALY   = 79.4342

EPHEMERIS_TYPE = 0
CLASSIFICATION_TYPE = U
NORAD_CAT_ID   = 21423
ELEMENT_SET_NO = 999
REV_AT_EPOCH   = 83512
BSTAR          = .76498E-4
MEAN_MOTION_DOT = .626E-5
MEAN_MOTION_DDOT = 0

CCSDS_OMM_VERS = 2.0
CREATION_DATE  = 
ORIGINATOR     = 

OBJECT_NAME    = ERS-1
OBJECT_ID      = 1991-050A
CENTER_NAME    = EARTH
REF_FRAME      = TEME
TIME_SYSTEM    = UTC
MEAN_ELEMENT_THEORY = SGP/SGP4

EPOCH          = 2025-11-08T17:50:46.404096
MEAN_MOTION    = 14.39324484
ECCENTRICITY   = .003165
INCLINATION    = 98.7925
RA_OF_ASC_NODE = 322.9448
ARG_OF_PERICENTER = 199.2649
MEAN_ANOMALY   = 160.7344

EPHEMERIS_TYPE = 0
CLASSIFICATION_TYPE = U
NORAD_CAT_ID   = 21574
ELEMENT_SET_NO = 999
REV_AT_EPOCH   = 79833
BSTAR          = .18695E-3
MEAN_MOTION_DOT = .538E-5
MEAN_MOTION_DDOT = 0

CCSDS_OMM_VERS = 2.0
CREATION_DATE  = 
ORIGINATOR     = 

OBJECT_NAME    = ARIANE 40 R/B
OBJECT_ID      = 1991-050F
CENTER_NAME    = EARTH
REF_FRAME      = TEME
TIME_SYSTEM    = UTC
MEAN_ELEMENT_THEORY = SGP/SGP4

EPOCH          = 2025-11-08T14:19:13.729152
MEAN_MOTION    = 14.42768220
ECCENTRICITY   = .0004318
INCLINATION    = 98.2215
RA_OF_ASC_NODE = 4.2516
ARG_OF_PERICENTER = 85.4421
MEAN_ANOMALY   = 274.7262

EPHEMERIS_TYPE = 0
CLASSIFICATION_TYPE = U
NORAD_CAT_ID   = 21610
ELEMENT_SET_NO = 999
REV_AT_EPOCH   = 80153
BSTAR          = .19464E-3
MEAN_MOTION_DOT = .607E-5
MEAN_MOTION_DDOT = 0

CCSDS_OMM_VERS = 2.0
CREATION_DATE  = 
ORIGINATOR     = 

OBJECT_NAME    = INTERCOSMOS 25
OBJECT_ID      = 1991-086A
CENTER_NAME    = EARTH
REF_FRAME      = TEME
TIME_SYSTEM    = UTC
MEAN_ELEMENT_THEORY = SGP/SGP4

EPOCH          = 2025-11-08T14:51:55.139616
MEAN_MOTION    = 12.11578185
ECCENTRICITY   = .1488553
INCLINATION    = 82.6087
RA_OF_ASC_NODE = 23.1991
ARG_OF_PERICENTER = 17.9377
MEAN_ANOMALY   = 346.8885

EPHEMERIS_TYPE = 0
CLASSIFICATION_TYPE = U
NORAD_CAT_ID   = 21819
ELEMENT_SET_NO = 999
REV_AT_EPOCH   = 48202
BSTAR          = .32456E-3
MEAN_MOTION_DOT = .167E-4
MEAN_MOTION_DDOT = 0

CCSDS_OMM_VERS = 2.0
CREATION_DATE  = 
ORIGINATOR     = 

OBJECT_NAME    = SL-8 R/B
OBJECT_ID      = 1992-008B
CENTER_NAME    = EARTH
REF_FRAME      = TEME
TIME_SYSTEM    = UTC
MEAN_ELEMENT_THEORY = SGP/SGP4

EPOCH          = 2025-11-08T14:13:57.319392
MEAN_MOTION    = 13.75948434
ECCENTRICITY   = .0036048
INCLINATION    = 82.9289
RA_OF_ASC_NODE = 357.8449
ARG_OF_PERICENTER = 112.2708
MEAN_ANOMALY   = 39.8040

EPHEMERIS_TYPE = 0
CLASSIFICATION_TYPE = U
NORAD_CAT_ID   = 21876
ELEMENT_SET_NO = 999
REV_AT_EPOCH   = 69276
BSTAR          = .13187E-3
MEAN_MOTION_DOT = .144E-5
MEAN_MOTION_DDOT = 0

CCSDS_OMM_VERS = 2.0
CREATION_DATE  = 
ORIGINATOR     = 

OBJECT_NAME    = SL-8 R/B
OBJECT_ID      = 1992-020B
CENTER_NAME    = EARTH
REF_FRAME      = TEME
TIME_SYSTEM    = UTC
MEAN_ELEMENT_THEORY = SGP/SGP4

EPOCH          = 2025-11-08T14:28:17.415840
MEAN_MOTION    = 13.75520580
ECCENTRICITY   = .0027638
INCLINATION    = 82.9305
RA_OF_ASC_NODE = 243.6645
ARG_OF_PERICENTER = 276.6215
MEAN_ANOMALY   = 257.3669

EPHEMERIS_TYPE = 0
CLASSIFICATION_TYPE = U
NORAD_CAT_ID   = 21938
ELEMENT_SET_NO = 999
REV_AT_EPOCH   = 68448
BSTAR          = .63835E-4
MEAN_MOTION_DOT = .76E-6
MEAN_MOTION_DDOT = 0

CCSDS_OMM_VERS = 2.0
CREATION_DATE  = 
ORIGINATOR     = 

OBJECT_NAME    = USA 81
OBJECT_ID      = 1992-023A
CENTER_NAME    = EARTH
REF_FRAME      = TEME
TIME_SYSTEM    = UTC
MEAN_ELEMENT_THEORY = SGP/SGP4

EPOCH          = 2025-11-08T15:54:29.303424
MEAN_MOTION    = 14.32307969
ECCENTRICITY   = .0002693
INCLINATION    = 85.0114
RA_OF_ASC_NODE = 201.2239
ARG_OF_PERICENTER = 79.5509
MEAN_ANOMALY   = 280.5987

EPHEMERIS_TYPE = 0
CLASSIFICATION_TYPE = U
NORAD_CAT_ID   = 21949
ELEMENT_SET_NO = 999
REV_AT_EPOCH   = 7746
BSTAR          = .1078E-3
MEAN_MOTION_DOT = .311E-5
MEAN_MOTION_DDOT = 0

CCSDS_OMM_VERS = 2.0
CREATION_DATE  = 
ORIGINATOR     = 

OBJECT_NAME    = COSMOS 2219
OBJECT_ID      = 1992-076A
CENTER_NAME    = EARTH
REF_FRAME      = TEME
TIME_SYSTEM    = UTC
MEAN_ELEMENT_THEORY = SGP/SGP4

EPOCH          = 2025-11-08T20:10:21.276192
MEAN_MOTION    = 14.14064061
ECCENTRICITY   = .0017396
INCLINATION    = 71.0605
RA_OF_ASC_NODE = 270.6920
ARG_OF_PERICENTER = 17.5398
MEAN_ANOMALY   = 342.6321

EPHEMERIS_TYPE = 0
CLASSIFICATION_TYPE = U
NORAD_CAT_ID   = 22219
ELEMENT_SET_NO = 999
REV_AT_EPOCH   = 70129
BSTAR          = .15907E-3
MEAN_MOTION_DOT = .256E-5
MEAN_MOTION_DDOT = 0

CCSDS_OMM_VERS = 2.0
CREATION_DATE  = 
ORIGINATOR     = 

OBJECT_NAME    = SL-16 R/B
OBJECT_ID      = 1992-076B
CENTER_NAME    = EARTH
REF_FRAME      = TEME
TIME_SYSTEM    = UTC
MEAN_ELEMENT_THEORY = SGP/SGP4

EPOCH          = 2025-11-08T20:08:45.086208
MEAN_MOTION    = 14.16834484
ECCENTRICITY   = .0015145
INCLINATION    = 70.9994
RA_OF_ASC_NODE = 82.9382
ARG_OF_PERICENTER = 278.1178
MEAN_ANOMALY   = 197.1029

EPHEMERIS_TYPE = 0
CLASSIFICATION_TYPE = U
NORAD_CAT_ID   = 22220
ELEMENT_SET_NO = 999
REV_AT_EPOCH   = 70471
BSTAR          = .10914E-3
MEAN_MOTION_DOT = .171E-5
MEAN_MOTION_DDOT = 0

CCSDS_OMM_VERS = 2.0
CREATION_DATE  = 
ORIGINATOR     = 

OBJECT_NAME    = COSMOS 2221
OBJECT_ID      = 1992-080A
CENTER_NAME    = EARTH
REF_FRAME      = TEME
TIME_SYSTEM    = UTC
MEAN_ELEMENT_THEORY = SGP/SGP4

EPOCH          = 2025-11-08T16:45:05.778720
MEAN_MOTION    = 14.95557484
ECCENTRICITY   = .001344
INCLINATION    = 82.5069
RA_OF_ASC_NODE = 34.8979
ARG_OF_PERICENTER = 235.6183
MEAN_ANOMALY   = 124.3768

EPHEMERIS_TYPE = 0
CLASSIFICATION_TYPE = U
NORAD_CAT_ID   = 22236
ELEMENT_SET_NO = 999
REV_AT_EPOCH   = 76270
BSTAR          = .33773E-3
MEAN_MOTION_DOT = .3775E-4
MEAN_MOTION_DDOT = 0

